{"fetched_at":"2026-03-29T02:12:04Z","count":15717,"tles":[{"name":"STARLINK-30477","line1":"1 57912U 23146X   26087.61880656  .00004857  00000+0  18588-3 0  9999","line2":"2 57912  43.0016 203.6757 0001192 277.3672  82.7044 15.27581170139990","category":"Starlink"}]}